{
    "links": {
        "self": "http://www.neowsapp.com/rest/v1/neo/3580961?api_key=iIulBulltgU6a56xZRHN4H3l9WmuAYTsLGpBGhQ2"
    },
    "id": "3580961",
    "neo_reference_id": "3580961",
    "name": "(2011 TH)",
    "designation": "2011 TH",
    "nasa_jpl_url": "http://ssd.jpl.nasa.gov/sbdb.cgi?sstr=3580961",
    "absolute_magnitude_h": 23.5,
    "estimated_diameter": {
        "kilometers": {
            "estimated_diameter_min": 0.0530340723,
            "estimated_diameter_max": 0.1185877909
        },
        "meters": {
            "estimated_diameter_min": 53.0340723319,
            "estimated_diameter_max": 118.5877908577
        },
        "miles": {
            "estimated_diameter_min": 0.0329538346,
            "estimated_diameter_max": 0.0736870142
        },
        "feet": {
            "estimated_diameter_min": 173.9963058693,
            "estimated_diameter_max": 389.0675677576
        }
    },
    "is_potentially_hazardous_asteroid": false,
    "close_approach_data": [
        {
            "close_approach_date": "2011-09-11",
            "close_approach_date_full": "2011-Sep-11 00:44",
            "epoch_date_close_approach": 1315701840000,
            "relative_velocity": {
                "kilometers_per_second": "10.5735090527",
                "kilometers_per_hour": "38064.632589617",
                "miles_per_hour": "23651.8823999207"
            },
            "miss_distance": {
                "astronomical": "0.0725305651",
                "lunar": "28.2143898239",
                "kilometers": "10850418.048856337",
                "miles": "6742137.1385059706"
            },
            "orbiting_body": "Earth"
        }
    ],
    "orbital_data": {
        "orbit_id": "5",
        "orbit_determination_date": "2017-04-06 08:52:34",
        "first_observation_date": "2011-10-01",
        "last_observation_date": "2011-10-03",
        "data_arc_in_days": 2,
        "observations_used": 33,
        "orbit_uncertainty": "9",
        "minimum_orbit_intersection": ".0574685",
        "jupiter_tisserand_invariant": "4.050",
        "epoch_osculation": "2455836.5",
        "eccentricity": ".4475803826937336",
        "semi_major_axis": "1.719723373536101",
        "inclination": "5.077024437447251",
        "ascending_node_longitude": "200.2819549636865",
        "orbital_period": "823.7327212433142",
        "perihelion_distance": ".9500089278814544",
        "perihelion_argument": "102.0389211180832",
        "aphelion_distance": "2.489437819190749",
        "perihelion_time": "2455779.865220918562",
        "mean_anomaly": "24.75137862502772",
        "mean_motion": ".4370349637885311",
        "equinox": "J2000",
        "orbit_class": {
            "orbit_class_type": "APO",
            "orbit_class_description": "Near-Earth asteroid orbits which cross the Earth’s orbit similar to that of 1862 Apollo",
            "orbit_class_range": "a (semi-major axis) > 1.0 AU; q (perihelion) < 1.017 AU"
        }
    },
    "is_sentry_object": false
}